DIRECTV 10              
1 31862U 07032A   17345.06351454 -.00000113  00000-0  00000+0 0  9995
2 31862   0.0133 158.9693 0000946 323.7935 237.2517  1.00285359 38226
